{"fetched_at":"2026-07-13T05:28:12.237Z","source":"https://celestrak.org/NORAD/elements/gp.php?NAME=HULIANWANG&FORMAT=JSON","constellation":"guowang","records":[{"OBJECT_NAME":"HULIANWANG DIGUI-156","OBJECT_ID":"2026-047B","EPOCH":"2026-07-12T16:57:33.424704","CLASSIFICATION_TYPE":"U","MEAN_MOTION":13.29326073,"ECCENTRICITY":0.0000823,"INCLINATION":50.0054,"RA_OF_ASC_NODE":324.787,"ARG_OF_PERICENTER":191.2551,"MEAN_ANOMALY":168.8303,"EPHEMERIS_TYPE":0,"NORAD_CAT_ID":68130,"ELEMENT_SET_NO":999,"REV_AT_EPOCH":1645,"BSTAR":0.000045441,"MEAN_MOTION_DOT":-0.00000103,"MEAN_MOTION_DDOT":0},{"OBJECT_NAME":"HULIANWANG DIGUI-157","OBJECT_ID":"2026-047C","EPOCH":"2026-07-09T18:23:28.146336","CLASSIFICATION_TYPE":"U","MEAN_MOTION":13.29327611,"ECCENTRICITY":0.00007914,"INCLINATION":50.0022,"RA_OF_ASC_NODE":335.2309,"ARG_OF_PERICENTER":176.7941,"MEAN_ANOMALY":183.2936,"EPHEMERIS_TYPE":0,"NORAD_CAT_ID":68131,"ELEMENT_SET_NO":999,"REV_AT_EPOCH":1607,"BSTAR":0.000026333316,"MEAN_MOTION_DOT":-0.00000112,"MEAN_MOTION_DDOT":0},{"OBJECT_NAME":"HULIANWANG DIGUI-158","OBJECT_ID":"2026-047D","EPOCH":"2026-07-09T18:11:22.668864","CLASSIFICATION_TYPE":"U","MEAN_MOTION":13.29333725,"ECCENTRICITY":0.00009152,"INCLINATION":50.0067,"RA_OF_ASC_NODE":335.2335,"ARG_OF_PERICENTER":178.9845,"MEAN_ANOMALY":181.1029,"EPHEMERIS_TYPE":0,"NORAD_CAT_ID":68132,"ELEMENT_SET_NO":999,"REV_AT_EPOCH":1606,"BSTAR":0.000059118294,"MEAN_MOTION_DOT":-9.7e-7,"MEAN_MOTION_DDOT":0},{"OBJECT_NAME":"HULIANWANG DIGUI-159","OBJECT_ID":"2026-047E","EPOCH":"2026-07-12T12:44:57.578208","CLASSIFICATION_TYPE":"U","MEAN_MOTION":13.29325947,"ECCENTRICITY":0.00010111,"INCLINATION":50.0038,"RA_OF_ASC_NODE":325.1833,"ARG_OF_PERICENTER":182.9785,"MEAN_ANOMALY":177.1081,"EPHEMERIS_TYPE":0,"NORAD_CAT_ID":68133,"ELEMENT_SET_NO":999,"REV_AT_EPOCH":1644,"BSTAR":0.000028394118,"MEAN_MOTION_DOT":-0.00000111,"MEAN_MOTION_DDOT":0},{"OBJECT_NAME":"HULIANWANG DIGUI-160","OBJECT_ID":"2026-047F","EPOCH":"2026-07-09T13:58:41.909664","CLASSIFICATION_TYPE":"U","MEAN_MOTION":13.29335099,"ECCENTRICITY":0.00010256,"INCLINATION":50.0093,"RA_OF_ASC_NODE":335.6697,"ARG_OF_PERICENTER":162.9732,"MEAN_ANOMALY":197.1174,"EPHEMERIS_TYPE":0,"NORAD_CAT_ID":68134,"ELEMENT_SET_NO":999,"REV_AT_EPOCH":1604,"BSTAR":0.000038408233,"MEAN_MOTION_DOT":-0.00000106,"MEAN_MOTION_DDOT":0},{"OBJECT_NAME":"HULIANWANG DIGUI-161","OBJECT_ID":"2026-047G","EPOCH":"2026-07-12T14:21:05.918688","CLASSIFICATION_TYPE":"U","MEAN_MOTION":13.29334271,"ECCENTRICITY":0.0000885,"INCLINATION":50.0115,"RA_OF_ASC_NODE":324.9495,"ARG_OF_PERICENTER":186.3412,"MEAN_ANOMALY":173.7449,"EPHEMERIS_TYPE":0,"NORAD_CAT_ID":68135,"ELEMENT_SET_NO":999,"REV_AT_EPOCH":1645,"BSTAR":0.00003189,"MEAN_MOTION_DOT":-0.00000109,"MEAN_MOTION_DDOT":0},{"OBJECT_NAME":"HULIANWANG DIGUI-162","OBJECT_ID":"2026-047H","EPOCH":"2026-07-12T17:33:51.394176","CLASSIFICATION_TYPE":"U","MEAN_MOTION":13.29324052,"ECCENTRICITY":0.0000888,"INCLINATION":50.0082,"RA_OF_ASC_NODE":324.2946,"ARG_OF_PERICENTER":194.6431,"MEAN_ANOMALY":165.4415,"EPHEMERIS_TYPE":0,"NORAD_CAT_ID":68136,"ELEMENT_SET_NO":999,"REV_AT_EPOCH":1646,"BSTAR":0.000059312,"MEAN_MOTION_DOT":-9.7e-7,"MEAN_MOTION_DDOT":0},{"OBJECT_NAME":"HULIANWANG DIGUI-163","OBJECT_ID":"2026-047J","EPOCH":"2026-07-12T13:45:04.419648","CLASSIFICATION_TYPE":"U","MEAN_MOTION":13.29338843,"ECCENTRICITY":0.0000763,"INCLINATION":50.0088,"RA_OF_ASC_NODE":324.7926,"ARG_OF_PERICENTER":193.0537,"MEAN_ANOMALY":167.0316,"EPHEMERIS_TYPE":0,"NORAD_CAT_ID":68137,"ELEMENT_SET_NO":999,"REV_AT_EPOCH":1645,"BSTAR":0.000050053,"MEAN_MOTION_DOT":-0.00000101,"MEAN_MOTION_DDOT":0},{"OBJECT_NAME":"HULIANWANG DIGUI-164","OBJECT_ID":"2026-076A","EPOCH":"2026-07-12T19:30:49.563360","CLASSIFICATION_TYPE":"U","MEAN_MOTION":13.24410889,"ECCENTRICITY":0.0002063,"INCLINATION":86.4945,"RA_OF_ASC_NODE":35.2233,"ARG_OF_PERICENTER":78.777,"MEAN_ANOMALY":281.3596,"EPHEMERIS_TYPE":0,"NORAD_CAT_ID":68656,"ELEMENT_SET_NO":999,"REV_AT_EPOCH":1276,"BSTAR":0.000083118,"MEAN_MOTION_DOT":5e-7,"MEAN_MOTION_DDOT":0},{"OBJECT_NAME":"HULIANWANG DIGUI-165","OBJECT_ID":"2026-076B","EPOCH":"2026-07-12T19:19:58.344096","CLASSIFICATION_TYPE":"U","MEAN_MOTION":13.24413577,"ECCENTRICITY":0.0002168,"INCLINATION":86.4965,"RA_OF_ASC_NODE":35.242,"ARG_OF_PERICENTER":85.2074,"MEAN_ANOMALY":274.9308,"EPHEMERIS_TYPE":0,"NORAD_CAT_ID":68657,"ELEMENT_SET_NO":999,"REV_AT_EPOCH":1276,"BSTAR":-0.0000677,"MEAN_MOTION_DOT":-1.4e-7,"MEAN_MOTION_DDOT":0},{"OBJECT_NAME":"HULIANWANG DIGUI-166","OBJECT_ID":"2026-076C","EPOCH":"2026-07-12T20:57:57.891744","CLASSIFICATION_TYPE":"U","MEAN_MOTION":13.24411586,"ECCENTRICITY":0.0002139,"INCLINATION":86.4906,"RA_OF_ASC_NODE":35.1517,"ARG_OF_PERICENTER":85.0836,"MEAN_ANOMALY":275.0542,"EPHEMERIS_TYPE":0,"NORAD_CAT_ID":68658,"ELEMENT_SET_NO":999,"REV_AT_EPOCH":1277,"BSTAR":-0.000081436,"MEAN_MOTION_DOT":-2e-7,"MEAN_MOTION_DDOT":0},{"OBJECT_NAME":"HULIANWANG DIGUI-167","OBJECT_ID":"2026-076D","EPOCH":"2026-07-12T20:46:59.812320","CLASSIFICATION_TYPE":"U","MEAN_MOTION":13.24413665,"ECCENTRICITY":0.0002131,"INCLINATION":86.4961,"RA_OF_ASC_NODE":35.2063,"ARG_OF_PERICENTER":84.9635,"MEAN_ANOMALY":275.1743,"EPHEMERIS_TYPE":0,"NORAD_CAT_ID":68659,"ELEMENT_SET_NO":999,"REV_AT_EPOCH":1277,"BSTAR":-0.000071291,"MEAN_MOTION_DOT":-1.6e-7,"MEAN_MOTION_DDOT":0},{"OBJECT_NAME":"HULIANWANG DIGUI-168","OBJECT_ID":"2026-076E","EPOCH":"2026-07-12T18:47:19.731264","CLASSIFICATION_TYPE":"U","MEAN_MOTION":13.24411881,"ECCENTRICITY":0.0002165,"INCLINATION":86.4942,"RA_OF_ASC_NODE":35.2081,"ARG_OF_PERICENTER":85.3863,"MEAN_ANOMALY":274.7518,"EPHEMERIS_TYPE":0,"NORAD_CAT_ID":68660,"ELEMENT_SET_NO":999,"REV_AT_EPOCH":1275,"BSTAR":-0.000091694,"MEAN_MOTION_DOT":-2.5e-7,"MEAN_MOTION_DDOT":0}]}
