HULIANWANG DIGUI-156    
1 68130U 26047B   26193.70663686 -.00000103  00000+0  45441-4 0  9996
2 68130  50.0054 324.7870 0000823 191.2551 168.8303 13.29326073 16453
HULIANWANG DIGUI-157    
1 68131U 26047C   26190.76629799 -.00000112  00000+0  26333-4 0  9996
2 68131  50.0022 335.2309 0000791 176.7941 183.2936 13.29327611 16078
HULIANWANG DIGUI-158    
1 68132U 26047D   26190.75790126 -.00000097  00000+0  59118-4 0  9998
2 68132  50.0067 335.2335 0000915 178.9845 181.1029 13.29333725 16064
HULIANWANG DIGUI-159    
1 68133U 26047E   26193.53122197 -.00000111  00000+0  28394-4 0  9994
2 68133  50.0038 325.1833 0001011 182.9785 177.1081 13.29325947 16442
HULIANWANG DIGUI-160    
1 68134U 26047F   26190.58242951 -.00000106  00000+0  38408-4 0  9999
2 68134  50.0093 335.6697 0001025 162.9732 197.1174 13.29335099 16043
HULIANWANG DIGUI-161    
1 68135U 26047G   26193.59798517 -.00000109  00000+0  31890-4 0  9999
2 68135  50.0115 324.9495 0000885 186.3412 173.7449 13.29334271 16455
HULIANWANG DIGUI-162    
1 68136U 26047H   26193.73184484 -.00000097  00000+0  59312-4 0  9993
2 68136  50.0082 324.2946 0000888 194.6431 165.4415 13.29324052 16467
HULIANWANG DIGUI-163    
1 68137U 26047J   26193.57296782 -.00000101  00000+0  50053-4 0  9990
2 68137  50.0088 324.7926 0000763 193.0537 167.0316 13.29338843 16459
HULIANWANG DIGUI-164    
1 68656U 26076A   26193.81307365  .00000050  00000+0  83118-4 0  9995
2 68656  86.4945  35.2233 0002063  78.7770 281.3596 13.24410889 12764
HULIANWANG DIGUI-165    
1 68657U 26076B   26193.80553639 -.00000014  00000+0 -67700-4 0  9993
2 68657  86.4965  35.2420 0002168  85.2074 274.9308 13.24413577 12767
HULIANWANG DIGUI-166    
1 68658U 26076C   26193.87358671 -.00000020  00000+0 -81436-4 0  9999
2 68658  86.4906  35.1517 0002139  85.0836 275.0542 13.24411586 12772
HULIANWANG DIGUI-167    
1 68659U 26076D   26193.86597005 -.00000016  00000+0 -71291-4 0  9998
2 68659  86.4961  35.2063 0002131  84.9635 275.1743 13.24413665 12772
HULIANWANG DIGUI-168    
1 68660U 26076E   26193.78286726 -.00000025  00000+0 -91694-4 0  9995
2 68660  86.4942  35.2081 0002165  85.3863 274.7518 13.24411881 12759
